{"spkid": "50441172", "covariance": {"elements": [{"title": "eccentricity", "value": ".5507065438046803", "units": null, "name": "e", "sigma": 2.09643240414254e-08, "label": "e"}, {"label": "q", "name": "q", "sigma": 4.4670617125787e-08, "units": "au", "title": "perihelion distance", "value": ".9894335736235731"}, {"label": "tp", "value": "2457132.329427170100", "title": "time of perihelion passage", "units": "TDB", "sigma": 3.21999248772346e-05, "name": "tp"}, {"label": "node", "units": "deg", "value": "34.62014215062327", "title": "longitude of the ascending node", "sigma": 1.73806464092909e-05, "name": "om"}, {"label": "peri", "units": "deg", "title": "argument of perihelion", "value": "354.9377246749221", "name": "w", "sigma": 2.39902499602573e-05}, {"label": "i", "sigma": 1.25783305537753e-05, "name": "i", "units": "deg", "value": "14.50061465340898", "title": "inclination"}], "data": [["4.395028825138889E-16", "-9.282925791655475E-16", "-2.892080872467998E-13", "6.455952325033547E-14", "-2.550876225385078E-13", "1.918143599812163E-14"], ["-9.282925791655475E-16", "1.995464034398651E-15", "4.49918460347562E-13", "-1.416141576054157E-13", "4.988025193304433E-13", "-9.173382424430074E-15"], ["-2.892080872467998E-13", "4.49918460347562E-13", "1.036835162099553E-9", "-3.105111859498352E-11", "4.784724306362464E-10", "-1.791862885111819E-10"], ["6.455952325033547E-14", "-1.416141576054157E-13", "-3.105111859498352E-11", "3.020868696047979E-10", "-2.999090422607791E-10", "7.757651108032093E-11"], ["-2.550876225385078E-13", "4.988025193304433E-13", "4.784724306362464E-10", "-2.999090422607791E-10", "5.755320931556244E-10", "-1.456626512446357E-10"], ["1.918143599812163E-14", "-9.173382424430074E-15", "-1.791862885111819E-10", "7.757651108032093E-11", "-1.456626512446357E-10", "1.582143995200374E-10"]], "labels": ["e", "q", "tp", "node", "peri", "i"], "epoch": "2457465.5"}, "elements": [{"label": "e", "title": "eccentricity", "value": ".552895736376294", "units": null, "name": "e", "sigma": "2.1223E-8"}, {"label": "a", "units": "au", "value": "2.200985586878608", "title": "semi-major axis", "name": "a", "sigma": "1.2741E-8"}, {"units": "au", "value": ".9840700400677506", "title": "perihelion distance", "name": "q", "sigma": "4.5442E-8", "label": "q"}, {"label": "i", "name": "i", "sigma": "1.2627E-5", "units": "deg", "value": "14.52209404641613", "title": "inclination; angle with respect to x-y ecliptic plane"}, {"label": "node", "sigma": "1.7349E-5", "name": "om", "units": "deg", "value": "34.53533337719163", "title": "longitude of the ascending node"}, {"sigma": "2.3846E-5", "name": "w", "value": "355.0826011196618", "title": "argument of perihelion", "units": "deg", "label": "peri"}, {"title": "mean anomaly", "value": "147.9573185214236", "units": "deg", "name": "ma", "sigma": "4.0439E-6", "label": "M"}, {"label": "tp", "name": "tp", "sigma": "1.154E-5", "units": "TDB", "value": "2460710.317078553169", "title": "time of perihelion passage"}, {"label": "period", "title": "sidereal orbital period", "value": "1192.680791219582", "units": "d", "name": "per", "sigma": "1.0356E-5"}, {"sigma": "2.621E-9", "name": "n", "value": ".3018410312719803", "title": "mean motion", "units": "deg/d", "label": "n"}, {"label": "Q", "units": "au", "value": "3.417901133689466", "title": "aphelion distance", "name": "ad", "sigma": "1.9786E-8"}], "epoch": "2461200.5"}